OBJECT_NAME,OBJECT_ID,EPOCH,MEAN_MOTION,ECCENTRICITY,INCLINATION,RA_OF_ASC_NODE,ARG_OF_PERICENTER,MEAN_ANOMALY,EPHEMERIS_TYPE,CLASSIFICATION_TYPE,NORAD_CAT_ID,ELEMENT_SET_NO,REV_AT_EPOCH,BSTAR,MEAN_MOTION_DOT,MEAN_MOTION_DDOT
SKYSAT-C1,2016-040C,2026-06-24T01:19:29.751744,15.36400858,.00028661,96.9565,206.4028,44.7167,315.4309,0,U,41601,999,55892,.22406729E-3,.7882E-4,0
LAPAN-A3,2016-040E,2026-06-24T07:19:50.194848,15.33143825,.00100119,97.1491,171.2171,1.3170,358.8097,0,U,41603,999,55590,.959453E-4,.3001E-4,0
GAOFEN-3,2016-049A,2026-06-24T07:10:58.610208,14.42216125,.00015241,98.4016,182.9781,97.4525,262.6838,0,U,41727,999,51967,.10349865E-4,-.9E-7,0
SKYSAT-C4,2016-058B,2026-06-24T07:27:00.556704,15.48783110,.00018722,96.9174,196.7842,139.6201,220.5190,0,U,41771,999,54657,.27911783E-3,.14912E-3,0
SKYSAT-C5,2016-058C,2026-06-24T01:57:12.084768,15.34554203,.00009751,97.0472,215.4140,242.0219,118.0926,0,U,41772,999,54480,.202402E-3,.6701E-4,0
SKYSAT-C2,2016-058D,2026-06-24T00:11:04.688160,15.42205016,.00041276,97.0173,196.8461,56.1352,304.0288,0,U,41773,999,54610,.25413621E-3,.10831E-3,0
SKYSAT-C3,2016-058E,2026-06-24T00:56:38.070528,15.52799383,.00013006,96.9009,205.6223,110.6460,249.4934,0,U,41774,999,54717,.33088545E-3,.20416E-3,0
ALSAT-1B,2016-059C,2026-06-24T07:24:02.585664,14.72278380,.00086092,97.7754,183.7649,194.9405,165.1550,0,U,41785,999,52162,.22956533E-4,.98E-6,0
PATHFINDER 1,2016-059E,2026-06-24T05:26:45.252096,14.67669669,.00283759,97.8167,174.1855,180.8535,179.2627,0,U,41787,999,52074,.89286709E-4,.464E-5,0
SCATSAT 1,2016-059H,2026-06-24T04:18:00.208512,14.79538396,.00536872,98.1187,239.0174,224.4744,135.2151,0,U,41790,999,10262,.13207833E-3,.955E-5,0
GOKTURK 1A,2016-073A,2026-06-24T06:59:31.700832,14.62779207,.00014419,98.1241,69.8540,75.6177,284.5185,0,U,41875,999,50986,.91762979E-4,.421E-5,0
RESOURCESAT-2A,2016-074A,2026-06-24T05:59:39.958656,14.21618900,.00032255,98.7523,248.6967,71.5714,288.5813,0,U,41877,999,49530,.10688641E-3,.19E-5,0
CARTOSAT-2D,2017-008A,2026-06-24T08:06:17.536608,15.19251754,.00044445,97.4106,234.5102,202.6571,157.4468,0,U,41948,999,51866,.14643649E-3,.3019E-4,0
SENTINEL-2B,2017-013A,2026-06-24T06:29:24.921312,14.30817922,.00011716,98.5687,249.9450,90.3285,269.8033,0,U,42063,999,48565,-.46544536E-4,-.166E-5,0
FORMOSAT-5,2017-049A,2026-06-24T05:24:07.070976,14.50900948,.00125219,98.2252,250.3785,64.8634,295.3859,0,U,42920,999,46769,.36358043E-4,.1E-5,0
SENTINEL-5P,2017-064A,2026-06-24T02:37:41.365920,14.19520022,.00010092,98.7926,117.1916,88.7280,271.4012,0,U,42969,999,45054,.33791162E-4,.27E-6,0
SKYSAT-C11,2017-068A,2026-06-23T22:18:21.417120,15.58202892,.00005315,97.4355,324.0557,115.1946,244.9365,0,U,42987,999,48429,.32295368E-3,.24303E-3,0
SKYSAT-C10,2017-068B,2026-06-24T03:19:31.787040,15.34737978,.00011537,97.4508,312.0542,103.6982,256.4389,0,U,42988,999,48342,.23796992E-3,.7932E-4,0
SKYSAT-C9,2017-068C,2026-06-24T02:51:43.620768,15.41711307,.0009564,97.4427,313.0357,111.4507,248.7761,0,U,42989,999,48382,.29003361E-3,.1218E-3,0
SKYSAT-C8,2017-068D,2026-06-24T02:23:01.153824,15.37092162,.00013861,97.4524,311.8407,95.7828,264.3575,0,U,42990,999,48337,.25308754E-3,.9105E-4,0
SKYSAT-C7,2017-068E,2026-06-23T23:06:39.069216,15.37041944,.00071268,97.4536,312.6923,87.0005,273.2054,0,U,42991,999,48341,.25542991E-3,.9182E-4,0
SKYSAT-C6,2017-068F,2026-06-24T03:00:48.746880,15.34065078,.0005186,97.4567,312.8004,132.1780,227.9904,0,U,42992,999,48338,.21096392E-3,.6875E-4,0
CARTOSAT-2F,2018-004A,2026-06-24T07:43:25.358592,15.19260442,.00014806,97.4785,234.8875,175.3231,184.8018,0,U,43111,999,46841,.18360416E-3,.3802E-4,0
GAOFEN-1 02,2018-031A,2026-06-24T06:41:38.694912,14.76417603,.00031354,98.0523,237.7863,13.9205,346.2090,0,U,43259,999,44374,.13254349E-3,.87E-5,0
GAOFEN-1 03,2018-031B,2026-06-24T07:47:38.998752,14.76433229,.0003715,98.0519,237.6898,65.1004,295.0591,0,U,43260,999,44374,.2132E-4,.97E-6,0
GAOFEN-1 04,2018-031D,2026-06-24T07:12:50.014368,14.76442232,.00020717,98.0525,237.8571,69.3590,290.7841,0,U,43262,999,44373,.66360358E-4,.41E-5,0
SENTINEL-3B,2018-039A,2026-06-24T04:51:53.400096,14.26736509,.00007319,98.6245,242.6343,102.3098,257.8165,0,U,43437,999,42512,.50077163E-4,.78E-6,0
GAOFEN-5 01,2018-043A,2026-06-24T04:28:12.192672,14.60609412,.00029589,98.4572,146.9195,71.1535,288.9985,0,U,43461,999,43271,.62640486E-4,.255E-5,0
