SKYSAT-C1               
1 41601U 16040C   26175.05520546  .00007882  00000+0  22407-3 0  9993
2 41601  96.9565 206.4028 0002866  44.7167 315.4309 15.36400858558921
LAPAN-A3                
1 41603U 16040E   26175.30544207  .00003001  00000+0  95945-4 0  9990
2 41603  97.1491 171.2171 0010011   1.3170 358.8097 15.33143825555901
GAOFEN-3                
1 41727U 16049A   26175.29928947 -.00000009  00000+0  10350-4 0  9994
2 41727  98.4016 182.9781 0001524  97.4525 262.6838 14.42216125519672
SKYSAT-C4               
1 41771U 16058B   26175.31042311  .00014912  00000+0  27912-3 0  9996
2 41771  96.9174 196.7842 0001872 139.6201 220.5190 15.48783110546579
SKYSAT-C5               
1 41772U 16058C   26175.08138987  .00006701  00000+0  20240-3 0  9990
2 41772  97.0472 215.4140 0000975 242.0219 118.0926 15.34554203544800
SKYSAT-C2               
1 41773U 16058D   26175.00769315  .00010831  00000+0  25414-3 0  9995
2 41773  97.0173 196.8461 0004127  56.1352 304.0288 15.42205016546109
SKYSAT-C3               
1 41774U 16058E   26175.03932952  .00020416  00000+0  33089-3 0  9995
2 41774  96.9009 205.6223 0001300 110.6460 249.4934 15.52799383547171
ALSAT-1B                
1 41785U 16059C   26175.30836326  .00000098  00000+0  22957-4 0  9993
2 41785  97.7754 183.7649 0008609 194.9405 165.1550 14.72278380521620
PATHFINDER 1            
1 41787U 16059E   26175.22691264  .00000464  00000+0  89287-4 0  9992
2 41787  97.8167 174.1855 0028375 180.8535 179.2627 14.67669669520745
SCATSAT 1               
1 41790U 16059H   26175.17916908  .00000955  00000+0  13208-3 0  9999
2 41790  98.1187 239.0174 0053687 224.4744 135.2151 14.79538396102623
GOKTURK 1A              
1 41875U 16073A   26175.29133913  .00000421  00000+0  91763-4 0  9990
2 41875  98.1241  69.8540 0001441  75.6177 284.5185 14.62779207509863
RESOURCESAT-2A          
1 41877U 16074A   26175.24976804  .00000190  00000+0  10689-3 0  9992
2 41877  98.7523 248.6967 0003225  71.5714 288.5813 14.21618900495300
CARTOSAT-2D             
1 41948U 17008A   26175.33770297  .00003019  00000+0  14644-3 0  9995
2 41948  97.4106 234.5102 0004444 202.6571 157.4468 15.19251754518662
SENTINEL-2B             
1 42063U 17013A   26175.27042733 -.00000166  00000+0 -46545-4 0  9998
2 42063  98.5687 249.9450 0001171  90.3285 269.8033 14.30817922485656
FORMOSAT-5              
1 42920U 17049A   26175.22508184  .00000100  00000+0  36358-4 0  9998
2 42920  98.2252 250.3785 0012521  64.8634 295.3859 14.50900948467692
SENTINEL-5P             
1 42969U 17064A   26175.10950655  .00000027  00000+0  33791-4 0  9995
2 42969  98.7926 117.1916 0001009  88.7280 271.4012 14.19520022450543
SKYSAT-C11              
1 42987U 17068A   26174.92941455  .00024303  00000+0  32295-3 0  9996
2 42987  97.4355 324.0557 0000531 115.1946 244.9365 15.58202892484299
SKYSAT-C10              
1 42988U 17068B   26175.13856235  .00007932  00000+0  23797-3 0  9998
2 42988  97.4508 312.0542 0001153 103.6982 256.4389 15.34737978483424
SKYSAT-C9               
1 42989U 17068C   26175.11925487  .00012180  00000+0  29003-3 0  9990
2 42989  97.4427 313.0357 0009564 111.4507 248.7761 15.41711307483822
SKYSAT-C8               
1 42990U 17068D   26175.09931891  .00009105  00000+0  25309-3 0  9993
2 42990  97.4524 311.8407 0001386  95.7828 264.3575 15.37092162483371
SKYSAT-C7               
1 42991U 17068E   26174.96295219  .00009182  00000+0  25543-3 0  9991
2 42991  97.4536 312.6923 0007126  87.0005 273.2054 15.37041944483414
SKYSAT-C6               
1 42992U 17068F   26175.12556420  .00006875  00000+0  21096-3 0  9990
2 42992  97.4567 312.8004 0005186 132.1780 227.9904 15.34065078483384
CARTOSAT-2F             
1 43111U 18004A   26175.32182128  .00003802  00000+0  18360-3 0  9994
2 43111  97.4785 234.8875 0001480 175.3231 184.8018 15.19260442468411
GAOFEN-1 02             
1 43259U 18031A   26175.27892008  .00000870  00000+0  13254-3 0  9995
2 43259  98.0523 237.7863 0003135  13.9205 346.2090 14.76417603443745
GAOFEN-1 03             
1 43260U 18031B   26175.32475693  .00000097  00000+0  21320-4 0  9995
2 43260  98.0519 237.6898 0003715  65.1004 295.0591 14.76433229443748
GAOFEN-1 04             
1 43262U 18031D   26175.30057887  .00000410  00000+0  66360-4 0  9998
2 43262  98.0525 237.8571 0002071  69.3590 290.7841 14.76442232443730
SENTINEL-3B             
1 43437U 18039A   26175.20270139  .00000078  00000+0  50077-4 0  9994
2 43437  98.6245 242.6343 0000731 102.3098 257.8165 14.26736509425126
GAOFEN-5 01             
1 43461U 18043A   26175.18625223  .00000255  00000+0  62640-4 0  9997
2 43461  98.4572 146.9195 0002958  71.1535 288.9985 14.60609412432715
